[{"OBJECT_NAME":"STARLINK-31133","OBJECT_ID":"2023-203E","EPOCH":"2026-03-09T01:23:00.445920","MEAN_MOTION":15.2757758,"ECCENTRICITY":6.944e-5,"INCLINATION":43.0013,"RA_OF_ASC_NODE":70.7522,"ARG_OF_PERICENTER":221.5435,"MEAN_ANOMALY":138.5364,"EPHEMERIS_TYPE":0,"CLASSIFICATION_TYPE":"U","NORAD_CAT_ID":58622,"ELEMENT_SET_NO":999,"REV_AT_EPOCH":12346,"BSTAR":-1.8540735e-5,"MEAN_MOTION_DOT":-7.72e-6,"MEAN_MOTION_DDOT":0},{"OBJECT_NAME":"239ALFEROV (RS61S)","OBJECT_ID":"2025-155F","EPOCH":"2026-03-09T21:46:33.382848","MEAN_MOTION":15.29933217,"ECCENTRICITY":0.00084878,"INCLINATION":97.4469,"RA_OF_ASC_NODE":37.6373,"ARG_OF_PERICENTER":151.5904,"MEAN_ANOMALY":208.58,"EPHEMERIS_TYPE":0,"CLASSIFICATION_TYPE":"U","NORAD_CAT_ID":64881,"ELEMENT_SET_NO":999,"REV_AT_EPOCH":6561,"BSTAR":0.00067233359,"MEAN_MOTION_DOT":0.00019457,"MEAN_MOTION_DDOT":0}]
